start=new Date('2022-10-26T00:00:00.000Z').valueOf();
sats=[{"CLASSIFICATION_TYPE":"U","OBJECT_NAME":"STARLINK-2029","DECAY_DATE":null,"EPOCH":"2022-10-25T12:27:00.944352","REV_AT_EPOCH":"8246","MEAN_ELEMENT_THEORY":"SGP4","FILE":"3633327","OBJECT_ID":"2021-036AW","MEAN_MOTION_DOT":"-0.00001220","ELEMENT_SET_NO":"999","TIME_SYSTEM":"UTC","ARG_OF_PERICENTER":"62.8125","INCLINATION":"53.0542","MEAN_ANOMALY":"297.3019","TLE_LINE2":"2 48320  53.0542 228.5708 0001518  62.8125 297.3019 15.06384191 82468","PERIOD":"95.593","BSTAR":"-0.00006307200000","RCS_SIZE":"LARGE","PERIAPSIS":"546.211","APOAPSIS":"548.313","GP_ID":"216153576","REF_FRAME":"TEME","OBJECT_TYPE":"PAYLOAD","EPHEMERIS_TYPE":"0","ECCENTRICITY":"0.00015180","MEAN_MOTION_DDOT":"0.0000000000000","SITE":"AFETR","TLE_LINE1":"1 48320U 21036AW  22298.51876093 -.00001220  00000-0 -63072-4 0  9990","CENTER_NAME":"EARTH","MEAN_MOTION":"15.06384191","NORAD_CAT_ID":"48320","LAUNCH_DATE":"2021-04-29","RA_OF_ASC_NODE":"228.5708","COUNTRY_CODE":"US","SEMIMAJOR_AXIS":"6925.397"},{"INCLINATION":"53.0543","MEAN_ANOMALY":"304.6457","PERIOD":"95.594","TLE_LINE2":"2 48321  53.0543 230.0739 0001621  55.4684 304.6457 15.06378347 82414","ARG_OF_PERICENTER":"55.4684","TIME_SYSTEM":"UTC","ELEMENT_SET_NO":"999","MEAN_MOTION_DOT":"-0.00004714","OBJECT_ID":"2021-036AX","MEAN_ELEMENT_THEORY":"SGP4","FILE":"3633075","EPOCH":"2022-10-25T04:24:00.084384","REV_AT_EPOCH":"8241","CLASSIFICATION_TYPE":"U","OBJECT_NAME":"STARLINK-2457","DECAY_DATE":null,"COUNTRY_CODE":"US","RA_OF_ASC_NODE":"230.0739","SEMIMAJOR_AXIS":"6925.415","LAUNCH_DATE":"2021-04-29","NORAD_CAT_ID":"48321","CENTER_NAME":"EARTH","MEAN_MOTION":"15.06378347","TLE_LINE1":"1 48321U 21036AX  22298.18333431 -.00004714  00000-0 -29794-3 0  9991","SITE":"AFETR","ECCENTRICITY":"0.00016210","EPHEMERIS_TYPE":"0","OBJECT_TYPE":"PAYLOAD","MEAN_MOTION_DDOT":"0.0000000000000","PERIAPSIS":"546.157","GP_ID":"216122372","REF_FRAME":"TEME","APOAPSIS":"548.403","BSTAR":"-0.00029794000000","RCS_SIZE":"LARGE"},{"TIME_SYSTEM":"UTC","ELEMENT_SET_NO":"999","MEAN_MOTION_DOT":"-0.00001350","MEAN_ANOMALY":"287.3686","INCLINATION":"53.0549","PERIOD":"95.593","TLE_LINE2":"2 48322  53.0549 228.6016 0001417  72.7458 287.3686 15.06389357 82465","ARG_OF_PERICENTER":"72.7458","EPOCH":"2022-10-25T12:16:23.775456","REV_AT_EPOCH":"8246","CLASSIFICATION_TYPE":"U","DECAY_DATE":null,"OBJECT_NAME":"STARLINK-2477","OBJECT_ID":"2021-036AY","MEAN_ELEMENT_THEORY":"SGP4","FILE":"3633327","LAUNCH_DATE":"2021-04-29","NORAD_CAT_ID":"48322","MEAN_MOTION":"15.06389357","CENTER_NAME":"EARTH","SITE":"AFETR","TLE_LINE1":"1 48322U 21036AY  22298.51138629 -.00001350  00000-0 -71760-4 0  9995","COUNTRY_CODE":"US","RA_OF_ASC_NODE":"228.6016","SEMIMAJOR_AXIS":"6925.381","PERIAPSIS":"546.265","GP_ID":"216154059","REF_FRAME":"TEME","APOAPSIS":"548.228","RCS_SIZE":"LARGE","BSTAR":"-0.00007176000000","ECCENTRICITY":"0.00014170","EPHEMERIS_TYPE":"0","OBJECT_TYPE":"PAYLOAD","MEAN_MOTION_DDOT":"0.0000000000000"},{"EPOCH":"2022-10-25T12:11:04.916256","REV_AT_EPOCH":"8246","CLASSIFICATION_TYPE":"U","DECAY_DATE":null,"OBJECT_NAME":"STARLINK-2515","OBJECT_ID":"2021-036AZ","MEAN_ELEMENT_THEORY":"SGP4","FILE":"3633327","TIME_SYSTEM":"UTC","ELEMENT_SET_NO":"999","MEAN_MOTION_DOT":"0.00000072","MEAN_ANOMALY":"305.4246","INCLINATION":"53.0549","PERIOD":"95.593","TLE_LINE2":"2 48323  53.0549 228.6102 0001397  54.6874 305.4246 15.06391910 82462","ARG_OF_PERICENTER":"54.6874","PERIAPSIS":"546.271","REF_FRAME":"TEME","GP_ID":"216153326","APOAPSIS":"548.206","BSTAR":"0.00002375600000","RCS_SIZE":"LARGE","ECCENTRICITY":"0.00013970","OBJECT_TYPE":"PAYLOAD","EPHEMERIS_TYPE":"0","MEAN_MOTION_DDOT":"0.0000000000000","LAUNCH_DATE":"2021-04-29","NORAD_CAT_ID":"48323","CENTER_NAME":"EARTH","MEAN_MOTION":"15.06391910","SITE":"AFETR","TLE_LINE1":"1 48323U 21036AZ  22298.50769579  .00000072  00000-0  23756-4 0  9999","COUNTRY_CODE":"US","RA_OF_ASC_NODE":"228.6102","SEMIMAJOR_AXIS":"6925.373"},{"TIME_SYSTEM":"UTC","ELEMENT_SET_NO":"999","MEAN_MOTION_DOT":"-0.00001253","MEAN_ANOMALY":"252.8542","INCLINATION":"53.0562","PERIOD":"95.593","TLE_LINE2":"2 48324  53.0562 227.4257 0001618 107.2624 252.8542 15.06391598 82499","ARG_OF_PERICENTER":"107.2624","EPOCH":"2022-10-25T18:26:34.223424","REV_AT_EPOCH":"8249","CLASSIFICATION_TYPE":"U","DECAY_DATE":null,"OBJECT_NAME":"STARLINK-2527","OBJECT_ID":"2021-036BA","MEAN_ELEMENT_THEORY":"SGP4","FILE":"3633327","LAUNCH_DATE":"2021-04-29","NORAD_CAT_ID":"48324","MEAN_MOTION":"15.06391598","CENTER_NAME":"EARTH","SITE":"AFETR","TLE_LINE1":"1 48324U 21036BA  22298.76845166 -.00001253  00000-0 -65257-4 0  9991","COUNTRY_CODE":"US","RA_OF_ASC_NODE":"227.4257","SEMIMAJOR_AXIS":"6925.374","PERIAPSIS":"546.119","GP_ID":"216153077","REF_FRAME":"TEME","APOAPSIS":"548.360","RCS_SIZE":"LARGE","BSTAR":"-0.00006525700000","ECCENTRICITY":"0.00016180","OBJECT_TYPE":"PAYLOAD","EPHEMERIS_TYPE":"0","MEAN_MOTION_DDOT":"0.0000000000000"},{"DECAY_DATE":null,"OBJECT_NAME":"STARLINK-2495","CLASSIFICATION_TYPE":"U","REV_AT_EPOCH":"8251","EPOCH":"2022-10-25T19:58:09.908832","FILE":"3633327","MEAN_ELEMENT_THEORY":"SGP4","OBJECT_ID":"2021-036BB","MEAN_MOTION_DOT":"-0.00000723","ELEMENT_SET_NO":"999","TIME_SYSTEM":"UTC","ARG_OF_PERICENTER":"51.1618","TLE_LINE2":"2 48325  53.0541 227.1664 0001336  51.1618 308.9490 15.06397263 82516","PERIOD":"95.592","MEAN_ANOMALY":"308.9490","INCLINATION":"53.0541","RCS_SIZE":"LARGE","BSTAR":"-0.00002967300000","APOAPSIS":"548.147","REF_FRAME":"TEME","GP_ID":"216154328","PERIAPSIS":"546.297","MEAN_MOTION_DDOT":"0.0000000000000","OBJECT_TYPE":"PAYLOAD","EPHEMERIS_TYPE":"0","ECCENTRICITY":"0.00013360","SITE":"AFETR","TLE_LINE1":"1 48325U 21036BB  22298.83205913 -.00000723  00000-0 -29673-4 0  9993","CENTER_NAME":"EARTH","MEAN_MOTION":"15.06397263","NORAD_CAT_ID":"48325","LAUNCH_DATE":"2021-04-29","SEMIMAJOR_AXIS":"6925.357","RA_OF_ASC_NODE":"227.1664","COUNTRY_CODE":"US"},{"BSTAR":"-0.00018844000000","RCS_SIZE":"MEDIUM","APOAPSIS":"548.194","REF_FRAME":"TEME","GP_ID":"216154559","PERIAPSIS":"546.184","MEAN_MOTION_DDOT":"0.0000000000000","OBJECT_TYPE":"PAYLOAD","EPHEMERIS_TYPE":"0","ECCENTRICITY":"0.00014510","SITE":"AFETR","TLE_LINE1":"1 48326U 21036BC  22298.82837042 -.00003088  00000-0 -18844-3 0  9991","CENTER_NAME":"EARTH","MEAN_MOTION":"15.06407914","NORAD_CAT_ID":"48326","LAUNCH_DATE":"2021-04-29","SEMIMAJOR_AXIS":"6925.324","RA_OF_ASC_NODE":"227.1822","COUNTRY_CODE":"US","OBJECT_NAME":"STARLINK-2498","DECAY_DATE":null,"CLASSIFICATION_TYPE":"U","REV_AT_EPOCH":"8251","EPOCH":"2022-10-25T19:52:51.204288","FILE":"3633327","MEAN_ELEMENT_THEORY":"SGP4","OBJECT_ID":"2021-036BC","MEAN_MOTION_DOT":"-0.00003088","ELEMENT_SET_NO":"999","TIME_SYSTEM":"UTC","ARG_OF_PERICENTER":"64.0186","TLE_LINE2":"2 48326  53.0566 227.1822 0001451  64.0186 296.0952 15.06407914 82516","PERIOD":"95.592","INCLINATION":"53.0566","MEAN_ANOMALY":"296.0952"},{"SEMIMAJOR_AXIS":"6925.359","COUNTRY_CODE":"US","RA_OF_ASC_NODE":"227.1985","LAUNCH_DATE":"2021-04-29","NORAD_CAT_ID":"48327","CENTER_NAME":"EARTH","MEAN_MOTION":"15.06396619","TLE_LINE1":"1 48327U 21036BD  22298.82468231 -.00000124  00000-0  10568-4 0  9995","SITE":"AFETR","MEAN_MOTION_DDOT":"0.0000000000000","ECCENTRICITY":"0.00013870","OBJECT_TYPE":"PAYLOAD","EPHEMERIS_TYPE":"0","REF_FRAME":"TEME","GP_ID":"216128016","APOAPSIS":"548.184","PERIAPSIS":"546.263","BSTAR":"0.00001056800000","RCS_SIZE":"LARGE","PERIOD":"95.592","TLE_LINE2":"2 48327  53.0545 227.1985 0001387  53.6239 306.4878 15.06396619 83103","INCLINATION":"53.0545","MEAN_ANOMALY":"306.4878","ARG_OF_PERICENTER":"53.6239","TIME_SYSTEM":"UTC","ELEMENT_SET_NO":"999","MEAN_MOTION_DOT":"-0.00000124","OBJECT_ID":"2021-036BD","FILE":"3633114","MEAN_ELEMENT_THEORY":"SGP4","REV_AT_EPOCH":"8310","EPOCH":"2022-10-25T19:47:32.551584","OBJECT_NAME":"STARLINK-2502","DECAY_DATE":null,"CLASSIFICATION_TYPE":"U"},{"MEAN_ELEMENT_THEORY":"SGP4","FILE":"3633327","OBJECT_ID":"2021-036BE","CLASSIFICATION_TYPE":"U","OBJECT_NAME":"STARLINK-2504","DECAY_DATE":null,"EPOCH":"2022-10-25T19:40:52.715712","REV_AT_EPOCH":"8251","ARG_OF_PERICENTER":"65.8242","INCLINATION":"53.0541","MEAN_ANOMALY":"294.2898","TLE_LINE2":"2 48328  53.0541 227.2073 0001447  65.8242 294.2898 15.06392403 82512","PERIOD":"95.593","MEAN_MOTION_DOT":"0.00000032","ELEMENT_SET_NO":"999","TIME_SYSTEM":"UTC","EPHEMERIS_TYPE":"0","OBJECT_TYPE":"PAYLOAD","ECCENTRICITY":"0.00014470","MEAN_MOTION_DDOT":"0.0000000000000","BSTAR":"0.00002102100000","RCS_SIZE":"LARGE","PERIAPSIS":"546.235","APOAPSIS":"548.239","GP_ID":"216153577","REF_FRAME":"TEME","RA_OF_ASC_NODE":"227.2073","COUNTRY_CODE":"US","SEMIMAJOR_AXIS":"6925.372","TLE_LINE1":"1 48328U 21036BE  22298.82005458  .00000032  00000-0  21021-4 0  9997","SITE":"AFETR","MEAN_MOTION":"15.06392403","CENTER_NAME":"EARTH","NORAD_CAT_ID":"48328","LAUNCH_DATE":"2021-04-29"},{"TIME_SYSTEM":"UTC","ELEMENT_SET_NO":"999","MEAN_MOTION_DOT":"-0.00002066","MEAN_ANOMALY":"320.2267","INCLINATION":"53.0546","PERIOD":"95.593","TLE_LINE2":"2 48329  53.0546 229.9025 0002096  39.8875 320.2267 15.06388616 82429","ARG_OF_PERICENTER":"39.8875","EPOCH":"2022-10-25T05:17:04.939584","REV_AT_EPOCH":"8242","CLASSIFICATION_TYPE":"U","OBJECT_NAME":"STARLINK-2510","DECAY_DATE":null,"OBJECT_ID":"2021-036BF","MEAN_ELEMENT_THEORY":"SGP4","FILE":"3633075","LAUNCH_DATE":"2021-04-29","NORAD_CAT_ID":"48329","MEAN_MOTION":"15.06388616","CENTER_NAME":"EARTH","TLE_LINE1":"1 48329U 21036BF  22298.22019606 -.00002066  00000-0 -11984-3 0  9999","SITE":"AFETR","COUNTRY_CODE":"US","RA_OF_ASC_NODE":"229.9025","SEMIMAJOR_AXIS":"6925.383","PERIAPSIS":"545.797","REF_FRAME":"TEME","GP_ID":"216122373","APOAPSIS":"548.700","BSTAR":"-0.00011984000000","RCS_SIZE":"LARGE","ECCENTRICITY":"0.00020960","OBJECT_TYPE":"PAYLOAD","EPHEMERIS_TYPE":"0","MEAN_MOTION_DDOT":"0.0000000000000"}];
